[
    {
        "Altitude(m)": 607895.7882666503,
        "Argument of Periapsis(deg)": 0.0,
        "Eccentricity": 0.0,
        "Inclination(deg)": 60.0,
        "Latitude(deg)": 40.99826072138921,
        "Longitude(deg)": -119.9112963504872,
        "Mean Anomaly(deg)": 130.90910000000005,
        "RAAN(deg)": 190.0,
        "Satellite Name": "Test1 844",
        "Satellite Number": 844,
        "Semi-Major Axis(m)": 6980739.136638005,
        "Time(s)": 0
    },
    {
        "Altitude(m)": 607795.1009679522,
        "Argument of Periapsis(deg)": 0.00010418945913296404,
        "Eccentricity": 0.0,
        "Inclination(deg)": 60.0,
        "Latitude(deg)": 40.530584392313656,
        "Longitude(deg)": -119.41470404852822,
        "Mean Anomaly(deg)": 131.5292061454618,
        "RAAN(deg)": 189.99957995086027,
        "Satellite Name": "Test1 844",
        "Satellite Number": 844,
        "Semi-Major Axis(m)": 6980739.136638005,
        "Time(s)": 10
    }
]